IRIDIUM 116             
1 43072U 17083C   25051.81221266 -.00000035  00000+0 -19724-4 0  9992
2 43072  86.4040 163.2224 0001929  92.3893 267.7524 14.34217388375172
IRIDIUM 130             
1 43073U 17083D   25051.85026755 -.00001141  00000+0 -41471-3 0  9995
2 43073  86.4042 163.4346 0002276  90.2194 269.9263 14.34216312375124
IRIDIUM 151             
1 43074U 17083E   25051.82489762  .00000138  00000+0  42132-4 0  9993
2 43074  86.4038 163.2638 0001912  94.7635 265.3779 14.34217843375141
IRIDIUM 134             
1 43075U 17083F   25051.72341549 -.00000105  00000+0 -44519-4 0  9990
2 43075  86.4042 163.3078 0002148  92.5930 267.5512 14.34215133375095
IRIDIUM 137             
1 43076U 17083G   25051.73609786  .00000408  00000+0  13870-3 0  9991
2 43076  86.4042 163.3852 0001770  85.0404 275.0994 14.34220271375164
IRIDIUM 131             
1 43079U 17083K   25051.85660327  .00000580  00000+0  20016-3 0  9996
2 43079  86.4042 163.3468 0001962 101.3062 258.8354 14.34220058375112
